TDRS 3                  
1 19548U 88091B   25112.02220201 -.00000295  00000+0  00000+0 0  9998
2 19548  12.9246 343.8026 0038648 346.8742 198.5853  1.00279389121161
FLTSATCOM 8 (USA 46)    
1 20253U 89077A   25112.55661486 -.00000363  00000+0  00000+0 0  9996
2 20253  12.5410 353.6867 0006339  11.5552 171.6332  1.00264565256347
SKYNET 4C               
1 20776U 90079A   25112.82398544  .00000130  00000+0  00000+0 0  9993
2 20776  13.4750 352.6731 0002316  33.2537 155.1637  1.00271797126670
TDRS 5                  
1 21639U 91054B   25112.46475186  .00000098  00000+0  00000+0 0  9997
2 21639  14.1225 356.8649 0003513  30.2540 209.5991  0.99955146123497
TDRS 6                  
1 22314U 93003B   25113.02254472 -.00000291  00000+0  00000+0 0  9996
2 22314  14.1732   0.1539 0007405 167.3719   6.0573  1.00272851118164
UFO 2 (USA 95)          
1 22787U 93056A   25112.84650719  .00000130  00000+0  00000+0 0  9992
2 22787  11.7533   5.7940 0004394 345.9199 192.7768  1.00272716114331
USA 99 (MILSTAR-1 1)    
1 22988U 94009A   25112.38027632 -.00000191  00000+0  00000+0 0  9993
2 22988  16.9886  32.2006 0001966 346.5090 238.8784  1.00274085 28738
UFO 4 (USA 108)         
1 23467U 95003A   25112.45781525 -.00000016  00000+0  00000+0 0  9993
2 23467   9.7199  14.5499 0002165  21.9329 151.4248  1.00275303110739
TDRS 7                  
1 23613U 95035B   25112.74593508 -.00000199  00000+0  00000+0 0  9997
2 23613  13.5528 351.0834 0028062  70.4101 142.8572  1.00276472109037
USA 115 (MILSTAR-1 2)   
1 23712U 95060A   25112.38159897 -.00000014  00000+0  00000+0 0  9990
2 23712  13.9179   6.8190 0003619   7.4695 213.7514  1.00273638 28666
INMARSAT 3-F1           
1 23839U 96020A   25112.66916098 -.00000232  00000+0  00000+0 0  9994
2 23839   9.7233  50.3574 0003465 341.7880  32.2734  0.99999595106051
INMARSAT 3-F2           
1 24307U 96053A   25112.45229587  .00000128  00000+0  00000+0 0  9991
2 24307   8.9017  58.0805 0006484 345.8214 183.6716  0.99988412104713
INMARSAT 3-F3           
1 24674U 96070A   25112.76794760 -.00000319  00000+0  00000+0 0  9994
2 24674   9.4068  53.5426 0004167 317.7204 226.8782  0.99990900103700
AMC-3                   
1 24936U 97050A   25112.34836619 -.00000254  00000+0  00000+0 0  9996
2 24936   7.1134  68.8116 0003124 321.5865 233.6647  1.00271555 48214
USA 134                 
1 25019U 97065A   25112.48298520 -.00000056  00000+0  00000+0 0  9993
2 25019  12.2813  24.7531 0004082 327.3803 280.3676  1.00274268 28730
INMARSAT 3-F5           
1 25153U 98006B   25112.73529675 -.00000283  00000+0  00000+0 0  9996
2 25153   8.7489  57.2970 0004819 342.5947  21.8109  1.00267559 99688
ASTRA 2A                
1 25462U 98050A   25112.54106329  .00000070  00000+0  00000+0 0  9997
2 25462   6.0325  73.8469 0004980 266.5219 112.0577  0.99039347 97526
SKYNET 4E               
1 25639U 99009B   25112.81887157 -.00000029  00000+0  00000+0 0  9998
2 25639  11.8138  11.4106 0003061  16.4140 116.8400  1.00273508 46969
ABS-6                   
1 25924U 99053A   25112.77741757 -.00000117  00000+0  00000+0 0  9992
2 25924   0.0355  98.3533 0002497 292.1035 259.5154  1.00270691 93629
UFO 10 (USA 146)        
1 25967U 99063A   25112.09881562 -.00000182  00000+0  00000+0 0  9996
2 25967   9.7002  29.3161 0002524 301.5623 252.1727  1.00270577 93124
USA 148                 
1 26052U 00001A   25112.49614612  .00000043  00000+0  00000+0 0  9995
2 26052  11.2164  35.5205 0001915 304.0890 230.0007  1.00272903 28749
ASIASTAR                
1 26107U 00016A   25112.76681816 -.00000326  00000+0  00000+0 0  9997
2 26107   8.1431  62.5155 0004595 338.2509 191.3433  1.00267750 91701
USA 149 (DSP 20)        
1 26356U 00024A   25112.34267271  .00000101  00000+0  00000+0 0  9991
2 26356  12.8525  14.7539 0001266 178.4019 335.5102  1.00275524 28691
TDRS 8                  
1 26388U 00034A   25112.45450407  .00000102  00000+0  00000+0 0  9995
2 26388  12.0286  34.7685 0004937 269.4550 262.5948  1.00266901 90960
INTELSAT 9 (IS-9)       
1 26451U 00043A   25112.87275994 -.00000006  00000+0  00000+0 0  9992
2 26451   9.4624  52.9873 0003976 356.4815 182.1427  1.00272110 39928
NSS-11                  
1 26554U 00059A   25112.78089279  .00000028  00000+0  00000+0 0  9995
2 26554   1.0370  86.3479 0003066 301.2526 280.6021  1.00270830 37073
USA 153                 
1 26575U 00065A   25112.62989104 -.00000317  00000+0  00000+0 0  9996
2 26575  10.8965  38.7445 0001615 333.1032 200.3658  1.00271164 28719
AMC-6                   
1 26580U 00067A   25112.87992560  .00000091  00000+0  00000+0 0  9999
2 26580   0.0918  77.2319 0002862 314.4722   1.2049  1.00273766 89679
USA 157 (MILSTAR-2 2)   
1 26715U 01009A   25112.50500472  .00000116  00000+0  00000+0 0  9991
2 26715  11.0802  22.2194 0038061 176.7073  43.6429  1.00274397 28724
INTELSAT 10 (IS-10)     
1 26766U 01019A   25112.91701944 -.00000001  00000+0  00000+0 0  9994
2 26766   8.0680  63.5315 0004170 327.4288 216.4944  1.00272737 41408
INTELSAT 901 (IS-901)   
1 26824U 01024A   25112.71809443  .00000024  00000+0  00000+0 0  9990
2 26824   0.1510  94.0375 0003590 323.9192 270.8116  0.98813729 18769
USA 159 (DSP 21)        
1 26880U 01033A   25112.09368968 -.00000291  00000+0  00000+0 0  9992
2 26880  12.3882  19.3018 0000917 136.3805  39.3766  1.00275401 28740
INTELSAT 902 (IS-902)   
1 26900U 01039A   25111.80790829 -.00000276  00000+0  00000+0 0  9997
2 26900   5.0514  76.9135 0004468 311.3955  62.5475  1.00269632 86545
USA 164 (MILSTAR-2 3)   
1 27168U 02001A   25112.84036267  .00000072  00000+0  00000+0 0  9991
2 27168  10.6776  24.2873 0100174   6.5014 141.9203  1.00277747 28744
INTELSAT 904 (IS-904)   
1 27380U 02007A   25112.74016205 -.00000208  00000+0  00000+0 0  9994
2 27380   5.8648  74.2021 0003142 323.6741  50.1122  1.00270555 47552
DIRECTV 5 (TEMPO 1)     
1 27426U 02023A   25112.63690000 -.00000051  00000+0  00000+0 0  9998
2 27426   3.7994  80.5630 0003344 309.3716 300.1693  1.00271433 83903
INTELSAT 905 (IS-905)   
1 27438U 02027A   25112.57119269  .00000082  00000+0  00000+0 0  9994
2 27438   5.6925  74.8417 0003153 287.8612 287.5505  0.99948544 47140
GALAXY 3C (G-3C)        
1 27445U 02030A   25112.95269825 -.00000147  00000+0  00000+0 0  9995
2 27445   2.6448  83.3235 0002972  46.5229 329.5332  1.00271056 42285
INTELSAT 906 (IS-906)   
1 27513U 02041A   25112.83013660  .00000019  00000+0  00000+0 0  9991
2 27513   4.7334  78.0931 0002987 326.0093 170.0184  1.00271954 82817
TDRS 10                 
1 27566U 02055A   25111.82925263 -.00000162  00000+0  00000+0 0  9993
2 27566   9.7378  48.1723 0008011 285.8389  71.9804  1.00673065 82007
NIMIQ 2                 
1 27632U 02062A   25112.48298845 -.00000060  00000+0  00000+0 0  9994
2 27632   8.4665  61.2065 0006053 329.3633 244.9120  1.00271585 39962
USA 167                 
1 27691U 03008A   25112.43616178  .00000013  00000+0  00000+0 0  9995
2 27691  10.1220  47.0288 0003615 301.0133 257.8326  1.00269882  2559
USA 169 (MILSTAR-2 4)   
1 27711U 03012A   25112.63301874 -.00000220  00000+0  00000+0 0  9990
2 27711  11.7082  33.1183 0100366   8.4043 189.4504  1.00273241 28734
ASIASAT 4               
1 27718U 03014A   25112.77524557 -.00000217  00000+0  00000+0 0  9995
2 27718   3.6282  81.0370 0002244 307.0896 249.5821  1.00271042 41083
HELLAS-SAT 2            
1 27811U 03020A   25112.67263619 -.00000076  00000+0  00000+0 0  9997
2 27811   6.3034  72.8787 0004525 292.0939  78.1638  1.00271885 38631
THURAYA-2               
1 27825U 03026A   25112.89746888  .00000131  00000+0  00000+0 0  9997
2 27825   8.1823  33.4997 0008134 339.2053 205.5616  1.00273329 80127
OPTUS C1                
1 27831U 03028B   25112.77689630 -.00000144  00000+0  00000+0 0  9999
2 27831   5.8324  74.4795 0006098 314.9819 257.0543  1.00272031 48845
GALAXY 23 (G-23)        
1 27854U 03034A   25112.63073650  .00000017  00000+0  00000+0 0  9993
2 27854   2.1098  84.9059 0002865 317.6816 274.5031  1.00271720 79521
USA 170                 
1 27875U 03040A   25112.03678304  .00000134  00000+0  00000+0 0  9994
2 27875   9.6028  51.7904 0002134  16.4628 179.5033  1.00267757 28765
GALAXY 13 (HORIZONS-1)  
1 27954U 03044A   25112.71626994  .00000135  00000+0  00000+0 0  9990
2 27954   0.3306  90.5123 0002377 298.1001 290.2450  1.00271978 42352
YAMAL 202               
1 28089U 03053A   25112.77828638 -.00000074  00000+0  00000+0 0  9998
2 28089   5.2813  76.0322 0003240 302.6712 276.0169  1.00271964 78486
UFO 11 (USA 174)        
1 28117U 03057A   25112.83239549 -.00000098  00000+0  00000+0 0  9994
2 28117   8.5522  35.6922 0002627 335.4843 215.1125  1.00272045 78235
USA 176 (DSP 22)        
1 28158U 04004A   25112.76334295 -.00000213  00000+0  00000+0 0  9997
2 28158  11.4869  29.0295 0000811  57.5825 126.6330  1.00271085 28717
ABS-4 (MOBISAT-1)       
1 28184U 04007A   25112.54393034  .00000045  00000+0  00000+0 0  9993
2 28184   4.9755  77.1118 0005573 317.3316  73.2259  1.00274581 77363
EUTELSAT 7A             
1 28187U 04008A   25112.87393115  .00000110  00000+0  00000+0 0  9996
2 28187   4.7601  77.0092 0003875 317.6145 351.9638  1.00271810 77134
AMC-11                  
1 28252U 04017A   25112.65256683 -.00000047  00000+0  00000+0 0  9993
2 28252   0.0545  65.0534 0003303 340.0615 289.6578  1.00271555 76651
INTELSAT 10-02          
1 28358U 04022A   25112.81720877 -.00000009  00000+0  00000+0 0  9993
2 28358   0.0159 118.4221 0000854 253.9747 131.9454  1.00269124 76348
ANIK F2                 
1 28378U 04027A   25113.08092831 -.00000045  00000+0  00000+0 0  9992
2 28378   2.2011  84.8596 0004281 326.2336  78.3085  1.00271800 76144
AMC-15                  
1 28446U 04041A   25112.65378315 -.00000086  00000+0  00000+0 0  9995
2 28446   0.0545  65.7515 0002303 328.6600 306.8536  1.00271582 75090
